{
    "links": {
        "self": "http://www.neowsapp.com/rest/v1/neo/3691157?api_key=iIulBulltgU6a56xZRHN4H3l9WmuAYTsLGpBGhQ2"
    },
    "id": "3691157",
    "neo_reference_id": "3691157",
    "name": "(2014 SU261)",
    "designation": "2014 SU261",
    "nasa_jpl_url": "http://ssd.jpl.nasa.gov/sbdb.cgi?sstr=3691157",
    "absolute_magnitude_h": 22.9,
    "estimated_diameter": {
        "kilometers": {
            "estimated_diameter_min": 0.0699125232,
            "estimated_diameter_max": 0.1563291544
        },
        "meters": {
            "estimated_diameter_min": 69.9125232246,
            "estimated_diameter_max": 156.3291544087
        },
        "miles": {
            "estimated_diameter_min": 0.0434416145,
            "estimated_diameter_max": 0.097138403
        },
        "feet": {
            "estimated_diameter_min": 229.3718026961,
            "estimated_diameter_max": 512.8909429502
        }
    },
    "is_potentially_hazardous_asteroid": false,
    "close_approach_data": [
        {
            "close_approach_date": "2014-10-03",
            "close_approach_date_full": "2014-Oct-03 16:01",
            "epoch_date_close_approach": 1412352060000,
            "relative_velocity": {
                "kilometers_per_second": "18.041840413",
                "kilometers_per_hour": "64950.6254868518",
                "miles_per_hour": "40357.7928198719"
            },
            "miss_distance": {
                "astronomical": "0.0555379901",
                "lunar": "21.6042781489",
                "kilometers": "8308365.023041087",
                "miles": "5162578.6333655206"
            },
            "orbiting_body": "Earth"
        }
    ],
    "orbital_data": {
        "orbit_id": "6",
        "orbit_determination_date": "2017-04-06 08:38:22",
        "first_observation_date": "2014-09-25",
        "last_observation_date": "2014-09-30",
        "data_arc_in_days": 5,
        "observations_used": 53,
        "orbit_uncertainty": "9",
        "minimum_orbit_intersection": ".0426591",
        "jupiter_tisserand_invariant": "4.264",
        "epoch_osculation": "2456927.5",
        "eccentricity": ".5350497770280712",
        "semi_major_axis": "1.536186026147902",
        "inclination": "17.23812215051272",
        "ascending_node_longitude": "5.249390491608505",
        "orbital_period": "695.4471669064523",
        "perihelion_distance": ".7142500353838281",
        "perihelion_argument": "89.18799974853574",
        "aphelion_distance": "2.358122016911975",
        "perihelion_time": "2456986.752476570522",
        "mean_anomaly": "329.3278043531706",
        "mean_motion": ".5176525509498916",
        "equinox": "J2000",
        "orbit_class": {
            "orbit_class_type": "APO",
            "orbit_class_description": "Near-Earth asteroid orbits which cross the Earth’s orbit similar to that of 1862 Apollo",
            "orbit_class_range": "a (semi-major axis) > 1.0 AU; q (perihelion) < 1.017 AU"
        }
    },
    "is_sentry_object": false
}